STARLINK-1082
1 44938U 20001AA  20300.89853219  .00000374  00000-0  44815-4 0  9991
2 44938  53.0008 124.4612 0001664  87.1986 272.9192 15.05581769 44740
